STARLINK-3053
1 19149C 21082V   21326.12988623 -.00653786  00000-0 -11747-1 0  3265
2 19149  69.9995 293.3922 0003365 270.1362 305.4254 15.50361131    14
